{"fetched_at":"2026-07-24T07:06:25.883Z","source":"https://celestrak.org/NORAD/elements/gp.php?NAME=EROS&FORMAT=JSON","constellation":"eros","records":[{"OBJECT_NAME":"EROS C3","OBJECT_ID":"2022-179A","EPOCH":"2026-07-23T21:42:48.972672","CLASSIFICATION_TYPE":"U","MEAN_MOTION":15.11094651,"ECCENTRICITY":0.0008858,"INCLINATION":139.3352,"RA_OF_ASC_NODE":214.6501,"ARG_OF_PERICENTER":236.9553,"MEAN_ANOMALY":123.0404,"EPHEMERIS_TYPE":0,"NORAD_CAT_ID":54880,"ELEMENT_SET_NO":999,"REV_AT_EPOCH":19788,"BSTAR":0.00031576,"MEAN_MOTION_DOT":0.00005647,"MEAN_MOTION_DDOT":0}]}
