EROS C3                 
1 54880U 22179A   26204.90473348  .00005647  00000+0  31576-3 0  9994
2 54880 139.3352 214.6501 0008858 236.9553 123.0404 15.11094651197884
